[{"OBJECT_NAME":"TIANQI-28","OBJECT_ID":"2024-102D","EPOCH":"2026-03-09T22:51:16.709472","MEAN_MOTION":13.99129757,"ECCENTRICITY":0.00101507,"INCLINATION":44.9805,"RA_OF_ASC_NODE":343.2234,"ARG_OF_PERICENTER":142.3431,"MEAN_ANOMALY":217.8114,"EPHEMERIS_TYPE":0,"CLASSIFICATION_TYPE":"U","NORAD_CAT_ID":59912,"ELEMENT_SET_NO":999,"REV_AT_EPOCH":9100,"BSTAR":0.00025291136,"MEAN_MOTION_DOT":2.4e-6,"MEAN_MOTION_DDOT":0},{"OBJECT_NAME":"DMSP 5D-2 F11 DEB","OBJECT_ID":"1991-082AK","EPOCH":"2026-03-09T11:38:11.378688","MEAN_MOTION":13.98889592,"ECCENTRICITY":0.0112214,"INCLINATION":98.566,"RA_OF_ASC_NODE":73.5794,"ARG_OF_PERICENTER":144.1332,"MEAN_ANOMALY":7.3854,"EPHEMERIS_TYPE":0,"CLASSIFICATION_TYPE":"U","NORAD_CAT_ID":28322,"ELEMENT_SET_NO":999,"REV_AT_EPOCH":11327,"BSTAR":0.0004486672,"MEAN_MOTION_DOT":6.44e-6,"MEAN_MOTION_DDOT":0}]
